# Made by eph2tle, compiled Dec 13 2025 12:53:27
# Run at Thu Dec 18 15:20:37 2025 UTC
#
#    The following TLEs (Two-Line Elements) were generated by fitting
# a numerically-integrated ephemeris,  based on the orbit given below,
# to the SDP4/SGP4 models.  Each TLE is good for the interval between
# its epoch and the epoch of the subsequent TLE (usually one day).
# The maximum deviation between the numerically integrated ephemerides
# and the TLE-based ephemeris, in kilometers,  is given for each TLE
# as the "worst residual".
#
#    This fitting is done using the 'eph2tle' code packaged with Find_Orb.
# The code has details on how the TLEs were computed :
#
#    https://github.com/Bill-Gray/find_orb/eph2tle.cpp
#
#    Be warned:  the error given is that between the numerically
# integrated ephems and the TLE model.  There will usually be at
# least some additional difference between the ephems and the actual
# motion of the satellite,  especially if the ephemerides are based
# on a short arc.  If the following orbital elements say something
# like "[based on] 10 observations 2015 Jan. 1-13",  and the TLEs
# are for 2015 May,  the extrapolation may be tenuous at best.  If
# your application requires a specific level of accuracy,  you may
# want to contact me;  I can give you some idea as to the fit of the
# underlying data (and possibly TLEs based on newer data).
#
#   You can usually find the underlying observational data,  and the
# fitted orbit,  residuals,  ephemerides,  and sometimes some comments
# about the object,  among the pages listed at
#
#    https://www.projectpluto.com/pluto/mpecs/pseudo.htm
#
#    WARNING:  for this object,  "normal" TLEs cannot be fitted.  (This
# usually means an object with an hyperbolic or nearly-parabolic orbit.)
# For this and similar cases,   an alternative model is used,  in which
# most of the traditional TLE data is replaced by six signed 8-digit hex
# numbers.  These six numbers are a state vector,  numerically integrated
# using a simplified force model.  This is necessary for objects at L2 or
# L1,  and sometimes for objects in high orbits where the SDP4/SGP4 model
# fails.  Some documentation is in 'get_el.cpp' in the source code at
# https://www.github.com/Bill-Gray/sat_code ; look for 'hex' in that file,
# with the actual integration done in 'sdp4.cpp'.  But be aware:  it's my
# own extension,  doesn't work with other code,  and is therefore used
# only when necessary.
#
#    Also,  if you use a TLE outside the "correct" time range (between
# its MJD and that of the next TLE),  all bets are off.  I've carefully
# computed and minimized the worst error over the "correct" time frame,
# but the ephemeris may (or may not) diverge wildly outside of it.
#
# Ephem range: 61041.000000 61222.000000 1.000000
# Created Thu Dec 18 10:20:26 2025
# Ephemeris start:  1 Jan 2026  0:00:00
# Ephemeris end:    1 Jul 2026  0:00:00
# Times are all TDT
# Positions/velocities are in equatorial J2000
# Orbital elements:  2024-083A = NORAD 59627 = Chang'e-6 Guidao Qi
#    Perigee 2025 Dec 13.95764 +/- 0.00083254 TT;  Constraint: A=0.016
# dx: -0.47647 +/- 0.021298   dy: 0.65494 +/- 0.023077
# dz: -0.022876 +/- 0.0021671 m/s   T0: 2025 Dec 04.132 +/- 0.069017
# Epoch 2025 Dec 15.0 TT = JDT 2461024.5                           Gray
# M  11.97323940 +/- 0.00930          (J2000 equator)
# n  11.48665709 +/- 0.00027184       Peri.  198.14507 +/- 0.01103
# a419895.353 +/- 6.6245              Node   359.01340 +/- 0.0000902
# e   0.0733406 +/- 1.1649e-5         Incl.   84.01272 +/- 0.0001770
# P  31.3401d                H 28.83  G  0.15   U  7.2
# q 389099.960 +/- 1.4535    Q 450690.746 +/- 11.976
# 51 of 146 observations 2025 Nov. 26-Dec. 15; mean residual 0".278/0.66 sigmas
#
# 1 NoradU COSPAR   Epoch.epoch     dn/dt/2  d2n/dt2/6 BSTAR    T El# C
# 2 NoradU Inclina RAAscNode Eccent  ArgPeri MeanAno  MeanMotion Rev# C

# Worst residual: 0.42 km
# MJD 61041.000000 (2026 Jan  1  0:00)
2024-083A = NORAD 59627 = Chang'e-6 Guidao Qi
1 59627U 24083A   25365.99919926 +002B0EM2 +000INJ7L +005FUEDQH 29098
2 59627                          -0006JIZQ +0000TA6S +0002AB9Y     05

# Worst residual: 0.35 km
# MJD 61042.000000 (2026 Jan  2  0:00)
2024-083A = NORAD 59627 = Chang'e-6 Guidao Qi
1 59627U 24083A   26001.99919926 +000OD4UJ +000P1XIQ +005SWZ02H 29092
2 59627                          -0006YJIR +0000NPZX +0000PSYC     08

# Worst residual: 0.29 km
# MJD 61043.000000 (2026 Jan  3  0:00)
2024-083A = NORAD 59627 = Chang'e-6 Guidao Qi
1 59627U 24083A   26002.99919926 -000ZX2HU +000TWXOT +005S37H7H 29096
2 59627                          -0006X18B +0000GLOV -0000WGHB     08

# Worst residual: 0.39 km
# MJD 61044.000000 (2026 Jan  4  0:00)
2024-083A = NORAD 59627 = Chang'e-6 Guidao Qi
1 59627U 24083A   26003.99919926 -002LWL8R +000WZ2OY +005DOSD3H 29093
2 59627                          -0006FSCS +00008VLM -0002EDAR     09

# Worst residual: 1.10 km
# MJD 61045.000000 (2026 Jan  5  0:00)
2024-083A = NORAD 59627 = Chang'e-6 Guidao Qi
1 59627U 24083A   26004.99919926 -00426PYX +000Y7I3L +004NCR0XH 29090
2 59627                          -0005M78G +00001JVS -0003NC7S     04

# Worst residual: 3.14 km
# MJD 61046.000000 (2026 Jan  6  0:00)
2024-083A = NORAD 59627 = Chang'e-6 Guidao Qi
1 59627U 24083A   26005.99919926 -005AC26B +000XTO1R +003NJ6IWH 29098
2 59627                          -0004KRAV -00004GK8 -0004LAZ3     07

# Worst residual: 11.39 km
# MJD 61047.000000 (2026 Jan  7  0:00)
2024-083A = NORAD 59627 = Chang'e-6 Guidao Qi
1 59627U 24083A   26006.99919926 -0068YIF3 +000W98WZ +002GUMQYH 29092
2 59627                          -0003FBOI -0000820O -00058U2B     02

# Worst residual: 111.88 km
# MJD 61048.000000 (2026 Jan  8  0:00)
2024-083A = NORAD 59627 = Chang'e-6 Guidao Qi
1 59627U 24083A   26007.99919926 -006X81QI +000UD7GO +0015DM8OH 29093
2 59627                          -000255UL -00006GDD -0005QR6V     03

# Worst residual: 48.21 km
# MJD 61049.000000 (2026 Jan  9  0:00)
2024-083A = NORAD 59627 = Chang'e-6 Guidao Qi
1 59627U 24083A   26008.99919926 -0077T5SW +000SGB6P -000AAAC7H 29091
2 59627                          -0000ALI1 -0000F8H1 -00062XKG     02

# Worst residual: 3.00 km
# MJD 61050.000000 (2026 Jan 10  0:00)
2024-083A = NORAD 59627 = Chang'e-6 Guidao Qi
1 59627U 24083A   26009.99919926 -0074QORL +000N1LSE -001PXNVRH 29093
2 59627                          +0000XMKF -0000RRJG -0005UG3F     01

# Worst residual: 0.75 km
# MJD 61051.000000 (2026 Jan 11  0:00)
2024-083A = NORAD 59627 = Chang'e-6 Guidao Qi
1 59627U 24083A   26010.99919926 -006S7VOG +000FO7TI -0032W2FUH 29099
2 59627                          +0001XZPY -0000X1IR -0005GN75     02

# Worst residual: 0.46 km
# MJD 61052.000000 (2026 Jan 12  0:00)
2024-083A = NORAD 59627 = Chang'e-6 Guidao Qi
1 59627U 24083A   26011.99919926 -0067HHCX +0007E6KC -004BWXXKH 29093
2 59627                          +0002U1SF -0000ZM3Z -0004XR4U     07

# Worst residual: 0.32 km
# MJD 61053.000000 (2026 Jan 13  0:00)
2024-083A = NORAD 59627 = Chang'e-6 Guidao Qi
1 59627U 24083A   26012.99919926 -005FLW89 -0001ADEA -005FV1X3H 29097
2 59627                          +0003LFZQ -00010HQG -0004AHTS     01

# Worst residual: 0.19 km
# MJD 61054.000000 (2026 Jan 14  0:00)
2024-083A = NORAD 59627 = Chang'e-6 Guidao Qi
1 59627U 24083A   26013.99919926 -004HRBZP -000A0NZU -006DSZ5SH 29091
2 59627                          +00047RBR -000102BD -0003JVYK     00

# Worst residual: 0.15 km
# MJD 61055.000000 (2026 Jan 15  0:00)
2024-083A = NORAD 59627 = Chang'e-6 Guidao Qi
1 59627U 24083A   26014.99919926 -003F6QTP -000IIIG3 -00752CWGH 29093
2 59627                          +0004OS9H -0000YKM9 -0002QZIP     07

# Worst residual: 0.19 km
# MJD 61056.000000 (2026 Jan 16  0:00)
2024-083A = NORAD 59627 = Chang'e-6 Guidao Qi
1 59627U 24083A   26015.99919926 -00295ZKF -000QJLN7 -007P7Q13H 29099
2 59627                          +00050IJV -0000W7SV -0001WS4M     00

# Worst residual: 0.28 km
# MJD 61057.000000 (2026 Jan 17  0:00)
2024-083A = NORAD 59627 = Chang'e-6 Guidao Qi
1 59627U 24083A   26016.99919926 -0010Y9CD -000XX8TX -00821P13H 29092
2 59627                          +000573NG -0000T69R -000125ID     01

# Worst residual: 0.39 km
# MJD 61058.000000 (2026 Jan 18  0:00)
2024-083A = NORAD 59627 = Chang'e-6 Guidao Qi
1 59627U 24083A   26017.99919926 +000892NG -0014I81G -0087JZJPH 29097
2 59627                          +00058T42 -0000PLUI -00007UZ7     06

# Worst residual: 0.46 km
# MJD 61059.000000 (2026 Jan 19  0:00)
2024-083A = NORAD 59627 = Chang'e-6 Guidao Qi
1 59627U 24083A   26018.99919926 +001HBAE8 -001A6MYB -0085WC45H 29098
2 59627                          +00055Z7K -0000LNPZ +0000LGJF     09

# Worst residual: 0.57 km
# MJD 61060.000000 (2026 Jan 20  0:00)
2024-083A = NORAD 59627 = Chang'e-6 Guidao Qi
1 59627U 24083A   26019.99919926 +002P6TLO -001EVQXB -007XDHMNH 29097
2 59627                          +0004YZTZ -0000HGBI +0001DA55     07

# Worst residual: 0.75 km
# MJD 61061.000000 (2026 Jan 21  0:00)
2024-083A = NORAD 59627 = Chang'e-6 Guidao Qi
1 59627U 24083A   26020.99919926 +003UXJOS -001IJRJ7 -007IEAZ4H 29095
2 59627                          +0004O9L6 -0000D33S +000236CE     08

# Worst residual: 0.86 km
# MJD 61062.000000 (2026 Jan 22  0:00)
2024-083A = NORAD 59627 = Chang'e-6 Guidao Qi
1 59627U 24083A   26021.99919926 +004XOUNM -001L5LOH -006XH1GXH 29091
2 59627                          +0004A72G -00008MHK +0002QS3C     08

# Worst residual: 0.84 km
# MJD 61063.000000 (2026 Jan 23  0:00)
2024-083A = NORAD 59627 = Chang'e-6 Guidao Qi
1 59627U 24083A   26022.99919926 +005WPKVY -001MONS6 -00676XC0H 29096
2 59627                          +0003T6GL -00004498 +0003BRHB     09

# Worst residual: 0.66 km
# MJD 61064.000000 (2026 Jan 24  0:00)
2024-083A = NORAD 59627 = Chang'e-6 Guidao Qi
1 59627U 24083A   26023.99919926 +006RBYQV -001N4TA2 -005C7ZXVH 29091
2 59627                          +00039LYH +00000D77 +0003TT09     09

